#   ITALSAT 2           # 24h resonant GEO, inclination > 3 deg
# 0 1440 120
1 24208U 96044A   06177.04061740 -.00000094  00000-0  10000-3 0  1600
2 24208   3.8536  80.0121 0026640 311.0977  48.3000  1.00778054 36119
